"12532084","JE434368","2021-11-04T23:14:00.000","070XX S CONSTANCE AVE","0560","ASSAULT","SIMPLE","APARTMENT",FALSE,TRUE,"0332","003","5","43","08A","1189758","1858642","2021","2021-11-11T15:51:52.000","41.767154906","-87.580011256",41.767154906,-87.580011256,{"address": "", "city": "", "state": "", "zip": ""},"32","22538","39","381","33","24","18","212"
"12532123","JE434374","2021-11-04T23:10:00.000","016XX S HOMAN AVE","0610","BURGLARY","FORCIBLE ENTRY","APARTMENT",FALSE,FALSE,"1021","010","24","29","05","1153973","1891495","2021","2021-11-11T15:51:52.000","41.85809318","-87.710305539",41.85809318,-87.710305539,{"address": "", "city": "", "state": "", "zip": ""},"36","21569","30","34","14","57","21","153"
"12532452","JE434824","2021-11-04T23:00:00.000","037XX W ARMITAGE AVE","0530","ASSAULT","AGGRAVATED - OTHER DANGEROUS WEAPON","BAR OR TAVERN",FALSE,TRUE,"2525","025","26","22","04A","1150906","1913025","2021","2021-11-11T15:51:52.000","41.917234286","-87.720999473",41.917234286,-87.720999473,{"address": "", "city": "", "state": "", "zip": ""},"10","22535","23","73","49","1","6","187"
"12535145","JE437298","2021-11-04T22:00:00.000","044XX N LAPORTE AVE","0610","BURGLARY","FORCIBLE ENTRY","APARTMENT",FALSE,FALSE,"1623","016","45","15","05","1142569","1929074","2021","2021-11-11T15:51:52.000","41.961433535","-87.751229639",41.961433535,-87.751229639,{"address": "", "city": "", "state": "", "zip": ""},"20","21869","15","259","50","48","12","58"
"12532301","JE434600","2021-11-04T22:00:00.000","106XX S WABASH AVE","0560","ASSAULT","SIMPLE","RESIDENCE",FALSE,FALSE,"0512","005","9","49","08A","1178458","1834476","2021","2021-11-11T15:51:52.000","41.70110453","-87.622161943",41.70110453,-87.622161943,{"address": "", "city": "", "state": "", "zip": ""},"30","21861","45","236","43","19","10","256"
"12533149","JE434877","2021-11-04T22:00:00.000","077XX S LOOMIS BLVD","0610","BURGLARY","FORCIBLE ENTRY","APARTMENT",FALSE,FALSE,"0612","006","17","71","05","1168343","1853360","2021","2021-11-11T15:51:52.000","41.753148272","-87.658657618",41.753148272,-87.658657618,{"address": "", "city": "", "state": "", "zip": ""},"17","21554","70","572","31","59","20","230"
"12532335","JE434640","2021-11-04T21:30:00.000","016XX N DAMEN AVE","0620","BURGLARY","UNLAWFUL ENTRY","RESTAURANT",FALSE,FALSE,"1434","014","2","24","05","1162768","1910885","2021","2021-11-11T15:51:52.000","41.911121299","-87.677478447",41.911121299,-87.677478447,{"address": "", "city": "", "state": "", "zip": ""},"16","22535","25","179","11","1","7","192"
"12532093","JE434267","2021-11-04T20:49:00.000","110XX S WENTWORTH AVE","0560","ASSAULT","SIMPLE","GROCERY FOOD STORE",FALSE,FALSE,"0513","005","34","49","08A","1176911","1831518","2021","2021-11-11T15:51:52.000","41.693022265","-87.627915204",41.693022265,-87.627915204,{"address": "", "city": "", "state": "", "zip": ""},"45","21861","45","524","22","19","10","260"
"12532034","JE434277","2021-11-04T20:47:00.000","082XX S ELLIS AVE","0520","ASSAULT","AGGRAVATED - KNIFE / CUTTING INSTRUMENT","APARTMENT",FALSE,TRUE,"0631","006","8","44","04A","1184329","1850598","2021","2021-11-11T15:51:52.000","41.745210123","-87.600161796",41.745210123,-87.600161796,{"address": "", "city": "", "state": "", "zip": ""},"9","21546","40","141","35","61","20","235"
"12532213","JE434509","2021-11-04T20:30:00.000","053XX S MOZART ST","0610","BURGLARY","FORCIBLE ENTRY","RESIDENCE - GARAGE",FALSE,FALSE,"0923","009","14","63","05","1158279","1869193","2021","2021-11-11T15:51:52.000","41.796806979","-87.695107937",41.796806979,-87.695107937,{"address": "", "city": "", "state": "", "zip": ""},"49","22248","61","777","8","56","23","120"
"12532379","JE434688","2021-11-04T20:00:00.000","018XX N NASHVILLE AVE","0610","BURGLARY","FORCIBLE ENTRY","RESIDENCE - GARAGE",FALSE,FALSE,"2513","025","29","25","05","1132127","1911513","2021","2021-11-11T15:51:52.000","41.913432373","-87.790029999",41.913432373,-87.790029999,{"address": "", "city": "", "state": "", "zip": ""},"39","4454","26","598","7","3","6","196"
"12531999","JE434259","2021-11-04T19:54:00.000","047XX N MARINE DR","0560","ASSAULT","SIMPLE","PARKING LOT / GARAGE (NON RESIDENTIAL)",FALSE,FALSE,"1914","019","46","3","08A","1170276","1931646","2021","2021-11-11T15:51:52.000","41.967929496","-87.649288171",41.967929496,-87.649288171,{"address": "", "city": "", "state": "", "zip": ""},"37","22616","31","636","39","15","5","4"
"12531933","JE434237","2021-11-04T19:40:00.000","079XX S DREXEL AVE","051A","ASSAULT","AGGRAVATED - HANDGUN","APARTMENT",FALSE,TRUE,"0624","006","8","44","04A","1183608","1852582","2021","2021-11-11T15:51:52.000","41.750671255","-87.602741902",41.750671255,-87.602741902,{"address": "", "city": "", "state": "", "zip": ""},"9","21546","40","247","35","61","20","227"
"12531932","JE434248","2021-11-04T19:30:00.000","019XX W 35TH ST","0610","BURGLARY","FORCIBLE ENTRY","APARTMENT",FALSE,FALSE,"0912","009","12","59","05","1163826","1881476","2021","2021-11-11T15:51:52.000","41.830398143","-87.674421044",41.830398143,-87.674421044,{"address": "", "city": "", "state": "", "zip": ""},"26","14924","56","720","1","37","23","165"
"12531800","JE434143","2021-11-04T18:24:00.000","074XX S LAFAYETTE AVE","051A","ASSAULT","AGGRAVATED - HANDGUN","ALLEY",FALSE,FALSE,"0731","007","6","69","04A","1177130","1855548","2021","2021-11-11T15:51:52.000","41.758958799","-87.626390884",41.758958799,-87.626390884,{"address": "", "city": "", "state": "", "zip": ""},"31","21559","67","494","32","11","17","210"
"12531847","JE434130","2021-11-04T18:15:00.000","067XX S CREGIER AVE","0560","ASSAULT","SIMPLE","RESIDENCE",FALSE,FALSE,"0332","003","5","43","08A","1189364","1860576","2021","2021-11-11T15:51:52.000","41.772471421","-87.58139343",41.772471421,-87.58139343,{"address": "", "city": "", "state": "", "zip": ""},"32","22538","39","381","33","24","18","212"
"12532797","JE434153","2021-11-04T18:09:00.000","054XX W WALTON ST","0610","BURGLARY","FORCIBLE ENTRY","RESIDENCE",FALSE,FALSE,"1524","015","37","25","05","1139704","1905798","2021","2021-11-11T15:51:52.000","41.897614661","-87.762332997",41.897614661,-87.762332997,{"address": "", "city": "", "state": "", "zip": ""},"4","4299","26","562","45","5","25","67"
"12536666","JE439971","2021-11-04T18:00:00.000","074XX S LUELLA AVE","0610","BURGLARY","FORCIBLE ENTRY","APARTMENT",FALSE,FALSE,"0333","003","7","43","05",,,"2021","2021-11-11T15:51:52.000",,,,,,,,,,,,,
"12533401","JE434240","2021-11-04T18:00:00.000","068XX S GREEN ST","051A","ASSAULT","AGGRAVATED - HANDGUN","SIDEWALK",FALSE,FALSE,"0723","007","6","68","04A","1171814","1859594","2021","2021-11-11T15:51:52.000","41.770179749","-87.645755147",41.770179749,-87.645755147,{"address": "", "city": "", "state": "", "zip": ""},"31","21559","66","410","32","11","17","202"
"12531811","JE434114","2021-11-04T17:56:00.000","028XX N MILWAUKEE AVE","0560","ASSAULT","SIMPLE","SIDEWALK",FALSE,FALSE,"1412","014","35","21","08A","1152489","1919043","2021","2021-11-11T15:51:52.000","41.933717021","-87.715024046",41.933717021,-87.715024046,{"address": "", "city": "", "state": "", "zip": ""},"15","21538","22","55","12","39","7","168"
"12532015","JE434172","2021-11-04T17:40:00.000","050XX S LAKE SHORE DR SB","0520","ASSAULT","AGGRAVATED - KNIFE / CUTTING INSTRUMENT","BRIDGE",TRUE,FALSE,"0222","002","5","39","04A","1189103","1871931","2021","2021-11-11T15:51:52.000","41.803636635","-87.581986417",41.803636635,-87.581986417,{"address": "", "city": "", "state": "", "zip": ""},"1","21192","5","400","33","10","24","113"
"12531841","JE434121","2021-11-04T17:28:00.000","056XX S MICHIGAN AVE","0560","ASSAULT","SIMPLE","APARTMENT",FALSE,FALSE,"0225","002","20","40","08A","1178117","1867752","2021","2021-11-11T15:51:52.000","41.792425533","-87.622403855",41.792425533,-87.622403855,{"address": "", "city": "", "state": "", "zip": ""},"53","22260","7","403","4","60","24","125"
"12531846","JE434247","2021-11-04T17:00:00.000","009XX W IRVING PARK RD","0560","ASSAULT","SIMPLE","SMALL RETAIL STORE",FALSE,FALSE,"1923","019","46","6","08A","1169204","1926746","2021","2021-11-11T15:51:52.000","41.954507152","-87.653372774",41.954507152,-87.653372774,{"address": "", "city": "", "state": "", "zip": ""},"37","21186","31","577","39","53","5","5"
"12531771","JE434088","2021-11-04T16:30:00.000","016XX S CLARK ST","0560","ASSAULT","SIMPLE","PARKING LOT / GARAGE (NON RESIDENTIAL)",FALSE,FALSE,"0131","001","3","33","08A","1175771","1892266","2021","2021-11-11T15:51:52.000","41.859746945","-87.630270643",41.859746945,-87.630270643,{"address": "", "city": "", "state": "", "zip": ""},"8","21194","34","330","26","40","22","94"
"12532759","JE433960","2021-11-04T16:00:00.000","078XX S MAY ST","0560","ASSAULT","SIMPLE","RESIDENCE",FALSE,TRUE,"0612","006","17","71","08A","1170011","1852871","2021","2021-11-11T15:51:52.000","41.751770335","-87.65255922",41.751770335,-87.65255922,{"address": "", "city": "", "state": "", "zip": ""},"17","21554","70","487","31","59","20","230"
"12531766","JE434018","2021-11-04T15:45:00.000","057XX S MICHIGAN AVE","0560","ASSAULT","SIMPLE","SIDEWALK",FALSE,FALSE,"0232","002","20","40","08A","1178137","1866956","2021","2021-11-11T15:51:52.000","41.790240779","-87.622354657",41.790240779,-87.622354657,{"address": "", "city": "", "state": "", "zip": ""},"53","22260","7","403","4","60","24","268"
"12532691","JE433928","2021-11-04T15:30:00.000","070XX S RHODES AVE","0560","ASSAULT","SIMPLE","SCHOOL - PUBLIC GROUNDS",FALSE,FALSE,"0322","003","6","69","08A","1181124","1858439","2021","2021-11-11T15:51:52.000","41.766801004","-87.611664319",41.766801004,-87.611664319,{"address": "", "city": "", "state": "", "zip": ""},"31","21546","67","480","32","60","18","211"
"12531791","JE434125","2021-11-04T15:22:00.000","064XX S KOSTNER AVE","051A","ASSAULT","AGGRAVATED - HANDGUN","STREET",FALSE,FALSE,"0813","008","13","65","04A","1148145","1861635","2021","2021-11-11T15:51:52.000","41.776267079","-87.732464532",41.776267079,-87.732464532,{"address": "", "city": "", "state": "", "zip": ""},"23","21867","63","6","15","58","13","271"
"12532428","JE434776","2021-11-04T15:15:00.000","010XX N CENTRAL AVE","0610","BURGLARY","FORCIBLE ENTRY","OTHER (SPECIFY)",FALSE,FALSE,"1511","015","29","25","05","1138817","1906593","2021","2021-11-11T15:51:52.000","41.899812391","-87.765571571",41.899812391,-87.765571571,{"address": "", "city": "", "state": "", "zip": ""},"4","4299","26","671","45","5","25","67"
"12536309","JE439682","2021-11-04T15:00:00.000","022XX S HOMAN AVE","0560","ASSAULT","SIMPLE","APARTMENT",FALSE,TRUE,"1024","010","22","30","08A","1154047","1888888","2021","2021-11-11T15:51:52.000","41.850937797","-87.710103367",41.850937797,-87.710103367,{"address": "", "city": "", "state": "", "zip": ""},"14","21569","32","755","28","57","21","130"
"12532676","JE435051","2021-11-04T15:00:00.000","115XX S PRAIRIE AVE","0560","ASSAULT","SIMPLE","SCHOOL - PUBLIC BUILDING",FALSE,FALSE,"0532","005","9","53","08A","1179978","1828463","2021","2021-11-11T15:51:52.000","41.684569436","-87.616779421",41.684569436,-87.616779421,{"address": "", "city": "", "state": "", "zip": ""},"30","21861","50","229","43","19","10","219"
"12532585","JE434881","2021-11-04T15:00:00.000","074XX S PHILLIPS AVE","0560","ASSAULT","SIMPLE","APARTMENT",FALSE,FALSE,"0334","003","7","43","08A","1193935","1856145","2021","2021-11-11T15:51:52.000","41.760201543","-87.564782892",41.760201543,-87.564782892,{"address": "", "city": "", "state": "", "zip": ""},"43","22538","39","245","37","24","18","213"
"12531749","JE433995","2021-11-04T14:55:00.000","007XX W BELMONT AVE","051A","ASSAULT","AGGRAVATED - HANDGUN","APARTMENT",FALSE,TRUE,"1934","019","44","6","04A","1170731","1921472","2021","2021-11-11T15:51:52.000","41.940001718","-87.647914376",41.940001718,-87.647914376,{"address": "", "city": "", "state": "", "zip": ""},"38","4449","57","730","25","22","5","18"
"12532001","JE434258","2021-11-04T14:45:00.000","011XX W 21ST ST","0560","ASSAULT","SIMPLE","COMMERCIAL / BUSINESS OFFICE",FALSE,FALSE,"1235","012","25","31","08A","1168944","1890050","2021","2021-11-11T15:51:52.000","41.853816728","-87.655394673",41.853816728,-87.655394673,{"address": "", "city": "", "state": "", "zip": ""},"8","14920","33","251","26","43","15","158"
"12532501","JE434971","2021-11-04T14:30:00.000","013XX N ARTESIAN AVE","0560","ASSAULT","SIMPLE","APARTMENT",FALSE,FALSE,"1423","014","26","24","08A","1159832","1908805","2021","2021-11-11T15:51:52.000","41.905474716","-87.688321772",41.905474716,-87.688321772,{"address": "", "city": "", "state": "", "zip": ""},"10","21560","25","302","49","4","7","62"
"12531974","JE434266","2021-11-04T14:00:00.000","045XX S CALUMET AVE","0620","BURGLARY","UNLAWFUL ENTRY","APARTMENT",FALSE,FALSE,"0215","002","3","38","05","1179192","1875041","2021","2021-11-11T15:51:52.000","41.812402736","-87.618239656",41.812402736,-87.618239656,{"address": "", "city": "", "state": "", "zip": ""},"12","4301","4","162","9","36","24","98"
"12532241","JE434564","2021-11-04T14:00:00.000","053XX S WESTERN AVE","0560","ASSAULT","SIMPLE","GOVERNMENT BUILDING / PROPERTY",FALSE,FALSE,"0923","009","15","63","08A","1161278","1869172","2021","2021-11-11T15:51:52.000","41.796687726","-87.684110808",41.796687726,-87.684110808,{"address": "", "city": "", "state": "", "zip": ""},"49","14924","61","778","3","56","23","120"
"12531819","JE434055","2021-11-04T14:00:00.000","059XX N KOLMAR AVE","0610","BURGLARY","FORCIBLE ENTRY","RESIDENCE",FALSE,FALSE,"1711","017","39","12","05","1145016","1939114","2021","2021-11-11T15:51:52.000","41.988938068","-87.741978211",41.988938068,-87.741978211,{"address": "", "city": "", "state": "", "zip": ""},"28","22532","12","713","38","18","1","53"
"12531684","JE433820","2021-11-04T13:51:00.000","101XX S STATE ST","0610","BURGLARY","FORCIBLE ENTRY","APARTMENT",FALSE,FALSE,"0511","005","9","49","05","1178048","1837574","2021","2021-11-11T15:51:52.000","41.709615153","-87.623569718",41.709615153,-87.623569718,{"address": "", "city": "", "state": "", "zip": ""},"30","21861","45","570","43","19","10","250"
"12531779","JE434161","2021-11-04T13:47:00.000","022XX W JACKSON BLVD","0560","ASSAULT","SIMPLE","SCHOOL - PUBLIC GROUNDS",FALSE,FALSE,"1225","012","27","28","08A","1161324","1898653","2021","2021-11-11T15:51:52.000","41.877585867","-87.683123746",41.877585867,-87.683123746,{"address": "", "city": "", "state": "", "zip": ""},"48","21184","29","89","46","28","15","139"
"12531750","JE433952","2021-11-04T13:45:00.000","0000X E MARQUETTE RD","051A","ASSAULT","AGGRAVATED - HANDGUN","APARTMENT",FALSE,TRUE,"0322","003","6","69","04A","1178010","1860610","2021","2021-11-11T15:51:52.000","41.77282959","-87.623012547",41.77282959,-87.623012547,{"address": "", "city": "", "state": "", "zip": ""},"53","22260","67","122","32","60","18","211"
"12537070","JE434531","2021-11-04T13:30:00.000","006XX W BRIAR PL","0610","BURGLARY","FORCIBLE ENTRY","SMALL RETAIL STORE",FALSE,FALSE,"1934","019","44","6","05",,,"2021","2021-11-11T15:51:52.000",,,,,,,,,,,,,
"12531591","JE433807","2021-11-04T13:30:00.000","050XX W MADISON ST","0560","ASSAULT","SIMPLE","PARKING LOT / GARAGE (NON RESIDENTIAL)",FALSE,FALSE,"1533","015","28","25","08A","1142891","1899556","2021","2021-11-11T15:51:52.000","41.880427066","-87.750783005",41.880427066,-87.750783005,{"address": "", "city": "", "state": "", "zip": ""},"11","22216","26","696","23","32","25","137"
"12531643","JE433757","2021-11-04T13:25:00.000","107XX S FOREST AVE","0560","ASSAULT","SIMPLE","STREET",FALSE,FALSE,"0513","005","9","49","08A","1180152","1833778","2021","2021-11-11T15:51:52.000","41.69915057","-87.615980428",41.69915057,-87.615980428,{"address": "", "city": "", "state": "", "zip": ""},"30","21861","45","237","43","19","10","260"
"12531598","JE433792","2021-11-04T13:17:00.000","077XX S BENNETT AVE","0560","ASSAULT","SIMPLE","RESIDENCE",FALSE,FALSE,"0414","004","8","43","08A","1190213","1854007","2021","2021-11-11T15:51:52.000","41.754425128","-87.578492599",41.754425128,-87.578492599,{"address": "", "city": "", "state": "", "zip": ""},"9","22538","39","188","35","24","19","222"
"12532145","JE433789","2021-11-04T13:15:00.000","002XX N LAVERGNE AVE","0545","ASSAULT","PROTECTED EMPLOYEE - HANDS, FISTS, FEET, NO / MINOR INJURY","SCHOOL - PUBLIC BUILDING",FALSE,FALSE,"1532","015","28","25","08A","1143003","1901153","2021","2021-11-11T15:51:52.000","41.884807342","-87.75033191",41.884807342,-87.75033191,{"address": "", "city": "", "state": "", "zip": ""},"11","22216","26","696","23","32","25","81"
"12535532","JE438435","2021-11-04T13:00:00.000","012XX N LA SALLE DR","0560","ASSAULT","SIMPLE","APARTMENT",FALSE,FALSE,"1821","018","2","8","08A","1174908","1908624","2021","2021-11-11T15:51:52.000","41.904653619","-87.6329484",41.904653619,-87.6329484,{"address": "", "city": "", "state": "", "zip": ""},"51","14926","37","17","11","54","14","198"
"12531551","JE433746","2021-11-04T13:00:00.000","068XX S NORMAL BLVD","0545","ASSAULT","PROTECTED EMPLOYEE - HANDS, FISTS, FEET, NO / MINOR INJURY","SCHOOL - PUBLIC BUILDING",FALSE,FALSE,"0722","007","6","68","08A","1174130","1859520","2021","2021-11-11T15:51:52.000","41.769925563","-87.637267875",41.769925563,-87.637267875,{"address": "", "city": "", "state": "", "zip": ""},"31","21559","66","479","32","11","17","201"
"12531571","JE433725","2021-11-04T12:40:00.000","082XX S COLES AVE","051A","ASSAULT","AGGRAVATED - HANDGUN","SIDEWALK",FALSE,TRUE,"0424","004","7","46","04A","1198250","1850974","2021","2021-11-11T15:51:52.000","41.745905086","-87.549141439",41.745905086,-87.549141439,{"address": "", "city": "", "state": "", "zip": ""},"43","21202","42","505","37","25","19","239"
"12531546","JE433731","2021-11-04T12:20:00.000","028XX S KARLOV AVE","0560","ASSAULT","SIMPLE","ALLEY",FALSE,FALSE,"1031","010","22","30","08A","1149512","1884745","2021","2021-11-11T15:51:52.000","41.839657986","-87.726855288",41.839657986,-87.726855288,{"address": "", "city": "", "state": "", "zip": ""},"14","21569","32","248","28","57","21","167"
"12533097","JE433765","2021-11-04T12:00:00.000","077XX S EBERHART AVE","0610","BURGLARY","FORCIBLE ENTRY","RESIDENCE",FALSE,FALSE,"0624","006","6","69","05","1180913","1853873","2021","2021-11-11T15:51:52.000","41.754276273","-87.612577936",41.754276273,-87.612577936,{"address": "", "city": "", "state": "", "zip": ""},"31","21546","67","496","32","61","20","227"
"12531670","JE433710","2021-11-04T11:49:00.000","046XX N KENMORE AVE","051A","ASSAULT","AGGRAVATED - HANDGUN","APARTMENT",FALSE,TRUE,"1914","019","46","3","04A","1168402","1931017","2021","2021-11-11T15:51:52.000","41.96624435","-87.656196958",41.96624435,-87.656196958,{"address": "", "city": "", "state": "", "zip": ""},"37","22616","31","241","39","15","5","4"
"12531549","JE433683","2021-11-04T11:37:00.000","086XX S JEFFERY BLVD","051A","ASSAULT","AGGRAVATED - HANDGUN","RESIDENCE",FALSE,TRUE,"0412","004","8","45","04A","1191016","1848107","2021","2021-11-11T15:51:52.000","41.738215629","-87.575740269",41.738215629,-87.575740269,{"address": "", "city": "", "state": "", "zip": ""},"9","21202","41","431","35","25","19","240"
"12533247","JE435891","2021-11-04T11:30:00.000","052XX W SCHUBERT AVE","0560","ASSAULT","SIMPLE","APARTMENT",FALSE,FALSE,"2514","025","31","19","08A","1141087","1917456","2021","2021-11-11T15:51:52.000","41.929580133","-87.756965579",41.929580133,-87.756965579,{"address": "", "city": "", "state": "", "zip": ""},"7","22615","19","79","17","2","6","177"
"12531528","JE433638","2021-11-04T11:20:00.000","032XX N CLARK ST","0560","ASSAULT","SIMPLE","DEPARTMENT STORE",TRUE,FALSE,"1924","019","44","6","08A","1169868","1921628","2021","2021-11-11T15:51:52.000","41.94044868","-87.651081589",41.94044868,-87.651081589,{"address": "", "city": "", "state": "", "zip": ""},"38","4449","57","731","25","22","5","28"
"12531496","JE433649","2021-11-04T11:05:00.000","009XX W 19TH ST","051A","ASSAULT","AGGRAVATED - HANDGUN","STREET",FALSE,FALSE,"1235","012","25","31","04A","1170684","1891113","2021","2021-11-11T15:51:52.000","41.856695811","-87.648977162",41.856695811,-87.648977162,{"address": "", "city": "", "state": "", "zip": ""},"8","14920","33","250","26","43","15","158"
"12532270","JE433675","2021-11-04T11:00:00.000","035XX S WALLACE ST","0560","ASSAULT","SIMPLE","SCHOOL - PRIVATE GROUNDS",FALSE,FALSE,"0915","009","11","60","08A","1172876","1881445","2021","2021-11-11T15:51:52.000","41.830117795","-87.641217375",41.830117795,-87.641217375,{"address": "", "city": "", "state": "", "zip": ""},"26","14924","58","172","48","37","23","170"
"12531543","JE433628","2021-11-04T11:00:00.000","109XX S HALSTED ST","0560","ASSAULT","SIMPLE","SCHOOL - PRIVATE GROUNDS",FALSE,FALSE,"2233","022","34","75","08A","1172929","1832316","2021","2021-11-11T15:51:52.000","41.695300664","-87.642470623",41.695300664,-87.642470623,{"address": "", "city": "", "state": "", "zip": ""},"45","21861","74","525","22","13","9","258"
"12531568","JE433660","2021-11-04T10:40:00.000","074XX S STONY ISLAND AVE","0530","ASSAULT","AGGRAVATED - OTHER DANGEROUS WEAPON","GAS STATION",FALSE,FALSE,"0324","003","8","43","04A","1188107","1855775","2021","2021-11-11T15:51:52.000","41.759327126","-87.586154041",41.759327126,-87.586154041,{"address": "", "city": "", "state": "", "zip": ""},"32","22538","39","451","35","61","18","217"
"12531524","JE433570","2021-11-04T10:35:00.000","046XX N MILWAUKEE AVE","051A","ASSAULT","AGGRAVATED - HANDGUN","STREET",FALSE,FALSE,"1623","016","45","15","04A","1140616","1930408","2021","2021-11-11T15:51:52.000","41.965130329","-87.758377123",41.965130329,-87.758377123,{"address": "", "city": "", "state": "", "zip": ""},"20","21869","15","260","50","48","12","58"
"12532846","JE434343","2021-11-04T10:30:00.000","078XX W BELMONT AVE","0560","ASSAULT","SIMPLE","BAR OR TAVERN",FALSE,FALSE,"1631","016","38","17","08A","1123085","1920340","2021","2021-11-11T15:51:52.000","41.937807222","-87.82305621",41.937807222,-87.82305621,{"address": "", "city": "", "state": "", "zip": ""},,"4454",,"457",,,,
"12532712","JE433917","2021-11-04T10:30:00.000","066XX N NORTHWEST HWY","0560","ASSAULT","SIMPLE","COMMERCIAL / BUSINESS OFFICE",FALSE,FALSE,"1612","016","41","9","08A","1125227","1943686","2021","2021-11-11T15:51:52.000","42.001835963","-87.814664322",42.001835963,-87.814664322,{"address": "", "city": "", "state": "", "zip": ""},"34","22243","77","654","29","17","12","45"
"12531498","JE433583","2021-11-04T10:20:00.000","012XX S WABASH AVE","0560","ASSAULT","SIMPLE","GROCERY FOOD STORE",TRUE,FALSE,"0131","001","3","33","08A","1176963","1894850","2021","2021-11-11T15:51:52.000","41.866810739","-87.625817031",41.866810739,-87.625817031,{"address": "", "city": "", "state": "", "zip": ""},"48","14913","34","374","9","35","22","94"
"12531600","JE433592","2021-11-04T10:17:00.000","068XX S STEWART AVE","0545","ASSAULT","PROTECTED EMPLOYEE - HANDS, FISTS, FEET, NO / MINOR INJURY","SCHOOL - PUBLIC BUILDING",FALSE,FALSE,"0722","007","6","68","08A","1174651","1859743","2021","2021-11-11T15:51:52.000","41.770525914","-87.635351487",41.770525914,-87.635351487,{"address": "", "city": "", "state": "", "zip": ""},"31","21559","66","479","32","11","17","201"
"12531411","JE433530","2021-11-04T10:10:00.000","006XX N SAWYER AVE","0560","ASSAULT","SIMPLE","RESIDENCE",FALSE,TRUE,"1121","011","27","23","08A","1154593","1904130","2021","2021-11-11T15:51:52.000","41.892752569","-87.707691679",41.892752569,-87.707691679,{"address": "", "city": "", "state": "", "zip": ""},"41","21572","24","177","46","30","16","65"
"12531503","JE433656","2021-11-04T10:00:00.000","058XX N LINCOLN AVE","051A","ASSAULT","AGGRAVATED - HANDGUN","SCHOOL - PUBLIC GROUNDS",FALSE,FALSE,"2011","020","40","2","04A","1155809","1938617","2021","2021-11-11T15:51:52.000","41.987362912","-87.702293402",41.987362912,-87.702293402,{"address": "", "city": "", "state": "", "zip": ""},"46","4450","20","65","24","50","2","57"
"12531573","JE433524","2021-11-04T09:50:00.000","049XX N KEDZIE AVE","0560","ASSAULT","SIMPLE","APARTMENT",FALSE,TRUE,"1713","017","33","14","08A","1154152","1932644","2021","2021-11-11T15:51:52.000","41.971006013","-87.70854818",41.971006013,-87.70854818,{"address": "", "city": "", "state": "", "zip": ""},"28","21849","14","750","20","20","1","1"
"12531408","JE433519","2021-11-04T09:45:00.000","071XX S WESTERN AVE","0560","ASSAULT","SIMPLE","CONVENIENCE STORE",FALSE,FALSE,"0832","008","18","66","08A","1161607","1857352","2021","2021-11-11T15:51:52.000","41.764245207","-87.683232026",41.764245207,-87.683232026,{"address": "", "city": "", "state": "", "zip": ""},"6","22257","64","333","30","58","13","207"
"12531798","JE433843","2021-11-04T09:15:00.000","008XX E 50TH ST","0560","ASSAULT","SIMPLE","SCHOOL - PUBLIC BUILDING",FALSE,FALSE,"0223","002","4","39","08A","1182685","1872039","2021","2021-11-11T15:51:52.000","41.804084538","-87.605520738",41.804084538,-87.605520738,{"address": "", "city": "", "state": "", "zip": ""},"1","21192","5","461","10","10","24","116"
"12531384","JE433505","2021-11-04T09:15:00.000","015XX W 82ND ST","0530","ASSAULT","AGGRAVATED - OTHER DANGEROUS WEAPON","RESIDENCE - PORCH / HALLWAY",FALSE,FALSE,"0614","006","21","71","04A","1167620","1850357","2021","2021-11-11T15:51:52.000","41.744923149","-87.66139308",41.744923149,-87.66139308,{"address": "", "city": "", "state": "", "zip": ""},"18","21554","70","558","13","59","20","237"
"12531510","JE433440","2021-11-04T09:00:00.000","034XX S RHODES AVE","0560","ASSAULT","SIMPLE","APARTMENT",FALSE,FALSE,"0211","002","4","35","08A","1180461","1882209","2021","2021-11-11T15:51:52.000","41.832043206","-87.613364699",41.832043206,-87.613364699,{"address": "", "city": "", "state": "", "zip": ""},"1","21194","1","581","10","40","24","169"
"12531492","JE433461","2021-11-04T08:44:00.000","070XX S VINCENNES AVE","051A","ASSAULT","AGGRAVATED - HANDGUN","STREET",FALSE,FALSE,"0731","007","6","69","04A","1176784","1858178","2021","2021-11-11T15:51:52.000","41.766183613","-87.627579866",41.766183613,-87.627579866,{"address": "", "city": "", "state": "", "zip": ""},"31","21559","67","513","32","11","17","210"
"12531364","JE433499","2021-11-04T08:40:00.000","007XX W NORTH AVE","0560","ASSAULT","SIMPLE","PARKING LOT / GARAGE (NON RESIDENTIAL)",FALSE,FALSE,"1822","018","27","8","08A","1170996","1910881","2021","2021-11-11T15:51:52.000","41.9109337","-87.647251872",41.9109337,-87.647251872,{"address": "", "city": "", "state": "", "zip": ""},"41","14926","37","108","11","54","14","199"
"12531419","JE433447","2021-11-04T08:30:00.000","065XX S CALIFORNIA AVE","0530","ASSAULT","AGGRAVATED - OTHER DANGEROUS WEAPON","ALLEY",FALSE,FALSE,"0831","008","17","66","04A","1158840","1861060","2021","2021-11-11T15:51:52.000","41.774477445","-87.693272697",41.774477445,-87.693272697,{"address": "", "city": "", "state": "", "zip": ""},"44","21867","64","382","31","58","13","208"
"12531351","JE433427","2021-11-04T08:15:00.000","034XX N KOLMAR AVE","0560","ASSAULT","SIMPLE","STREET",FALSE,FALSE,"1731","017","30","16","08A","1145437","1922474","2021","2021-11-11T15:51:52.000","41.943268632","-87.740852933",41.943268632,-87.740852933,{"address": "", "city": "", "state": "", "zip": ""},"27","22618","16","328","21","21","1","25"
"12531288","JE433402","2021-11-04T08:00:00.000","057XX S PAULINA ST","0560","ASSAULT","SIMPLE","APARTMENT",FALSE,TRUE,"0715","007","16","67","08A","1165991","1866628","2021","2021-11-11T15:51:52.000","41.789607705","-87.66690005",41.789607705,-87.66690005,{"address": "", "city": "", "state": "", "zip": ""},"44","22257","65","385","2","23","17","270"
"12531420","JE433404","2021-11-04T07:51:00.000","066XX S KEDZIE AVE","0530","ASSAULT","AGGRAVATED - OTHER DANGEROUS WEAPON","COMMERCIAL / BUSINESS OFFICE",FALSE,FALSE,"0831","008","17","66","04A","1156191","1860478","2021","2021-11-11T15:51:52.000","41.772934041","-87.702999205",41.772934041,-87.702999205,{"address": "", "city": "", "state": "", "zip": ""},"44","21867","64","293","31","58","13","208"
"12532231","JE434549","2021-11-04T07:00:00.000","052XX S INDIANA AVE","0610","BURGLARY","FORCIBLE ENTRY","APARTMENT",FALSE,FALSE,"0231","002","3","40","05","1178484","1870463","2021","2021-11-11T15:51:52.000","41.799856435","-87.620975753",41.799856435,-87.620975753,{"address": "", "city": "", "state": "", "zip": ""},"12","21192","7","218","9","10","24","125"
"12531392","JE433380","2021-11-04T06:50:00.000","087XX S MICHIGAN AVE","0520","ASSAULT","AGGRAVATED - KNIFE / CUTTING INSTRUMENT","RESIDENCE",FALSE,TRUE,"0632","006","9","44","04A","1178681","1846979","2021","2021-11-11T15:51:52.000","41.735409344","-87.62096659",41.735409344,-87.62096659,{"address": "", "city": "", "state": "", "zip": ""},"31","21546","40","428","43","61","20","241"
"12531672","JE433729","2021-11-04T06:15:00.000","016XX N MASON AVE","0560","ASSAULT","SIMPLE","SIDEWALK",FALSE,FALSE,"2531","025","29","25","08A","1136503","1910226","2021","2021-11-11T15:51:52.000","41.909823499","-87.773984044",41.909823499,-87.773984044,{"address": "", "city": "", "state": "", "zip": ""},"52","22615","26","597","7","2","6","154"
"12531689","JE433678","2021-11-04T06:00:00.000","053XX W GEORGE ST","051A","ASSAULT","AGGRAVATED - HANDGUN","STREET",FALSE,FALSE,"2514","025","31","19","04A","1140376","1918766","2021","2021-11-11T15:51:52.000","41.933187994","-87.759546124",41.933187994,-87.759546124,{"address": "", "city": "", "state": "", "zip": ""},"7","22618","19","303","17","21","6","177"
"12531526","JE433426","2021-11-04T05:30:00.000","054XX N EAST RIVER RD","0630","BURGLARY","ATTEMPT FORCIBLE ENTRY","APARTMENT",FALSE,FALSE,"1614","016","41","76","05","1116633","1934807","2021","2021-11-11T15:51:52.000","41.977609479","-87.846467101",41.977609479,-87.846467101,{"address": "", "city": "", "state": "", "zip": ""},"34","4448","75","64","29","31","12","44"
"12532182","JE433332","2021-11-04T05:00:00.000","054XX W ROOSEVELT RD","0560","ASSAULT","SIMPLE","FACTORY / MANUFACTURING BUILDING",FALSE,FALSE,"1522","015","29","25","08A","1140144","1894154","2021","2021-11-11T15:51:52.000","41.865653989","-87.761002116",41.865653989,-87.761002116,{"address": "", "city": "", "state": "", "zip": ""},,"4458",,"61",,,,
"12533788","JE433326","2021-11-04T05:00:00.000","011XX W THORNDALE AVE","0610","BURGLARY","FORCIBLE ENTRY","RESTAURANT",FALSE,FALSE,"2433","024","48","77","05","1167577","1939683","2021","2021-11-11T15:51:52.000","41.990041951","-87.658979479",41.990041951,-87.658979479,{"address": "", "city": "", "state": "", "zip": ""},"40","4451","76","213","16","14","11","50"
"12532067","JE433327","2021-11-04T04:27:00.000","017XX W HUBBARD ST","0610","BURGLARY","FORCIBLE ENTRY","COMMERCIAL / BUSINESS OFFICE",FALSE,FALSE,"1215","012","27","24","05","1164904","1903147","2021","2021-11-11T15:51:52.000","41.889842586","-87.669851379",41.889842586,-87.669851379,{"address": "", "city": "", "state": "", "zip": ""},"10","21560","25","520","46","4","15","78"
"12531225","JE433328","2021-11-04T03:21:00.000","040XX W MONTROSE AVE","0610","BURGLARY","FORCIBLE ENTRY","SMALL RETAIL STORE",FALSE,FALSE,"1722","017","39","16","05","1148815","1928938","2021","2021-11-11T15:51:52.000","41.960941611","-87.728269233",41.960941611,-87.728269233,{"address": "", "city": "", "state": "", "zip": ""},"28","22618","14","257","38","48","1","11"
"12535141","JE438069","2021-11-04T03:00:00.000","025XX N CLARK ST","0610","BURGLARY","FORCIBLE ENTRY","SMALL RETAIL STORE",FALSE,FALSE,"1935","019","43","7","05","1172209","1917535","2021","2021-11-11T15:51:52.000","41.929165877","-87.642598884",41.929165877,-87.642598884,{"address": "", "city": "", "state": "", "zip": ""},"51","21190","68","18","34","16","5","178"
"12531307","JE433331","2021-11-04T03:00:00.000","009XX N MICHIGAN AVE","0560","ASSAULT","SIMPLE","STREET",FALSE,FALSE,"1833","018","42","8","08A","1177324","1906733","2021","2021-11-11T15:51:52.000","41.899410159","-87.624131266",41.899410159,-87.624131266,{"address": "", "city": "", "state": "", "zip": ""},"22","21182","37","233","11","6","14","71"
"12531570","JE433370","2021-11-04T02:55:00.000","059XX N WESTERN AVE","0610","BURGLARY","FORCIBLE ENTRY","AUTO / BOAT / RV DEALERSHIP",FALSE,FALSE,"2011","020","40","2","05","1159243","1939449","2021","2021-11-11T15:51:52.000","41.989575829","-87.689639993",41.989575829,-87.689639993,{"address": "", "city": "", "state": "", "zip": ""},"46","21849","6","664","24","50","2","55"
"12531192","JE433298","2021-11-04T02:07:00.000","011XX S DELANO CT W","0610","BURGLARY","FORCIBLE ENTRY","SMALL RETAIL STORE",FALSE,FALSE,"0123","001","25","32","05","1175065","1895290","2021","2021-11-11T15:51:52.000","41.868060842","-87.632771561",41.868060842,-87.632771561,{"address": "", "city": "", "state": "", "zip": ""},"48","14917","38","12","26","35","22","144"
"12532453","JE434577","2021-11-04T01:49:00.000","026XX W FULTON ST","0610","BURGLARY","FORCIBLE ENTRY","COMMERCIAL / BUSINESS OFFICE",FALSE,FALSE,"1222","012","27","27","05","1158548","1901906","2021","2021-11-11T15:51:52.000","41.886569659","-87.693227415",41.886569659,-87.693227415,{"address": "", "city": "", "state": "", "zip": ""},"41","21184","28","50","46","28","15","77"
"12531130","JE433257","2021-11-04T01:12:00.000","035XX E 106TH ST","051A","ASSAULT","AGGRAVATED - HANDGUN","APARTMENT",FALSE,TRUE,"0432","004","10","52","04A","1201411","1835275","2021","2021-11-11T15:51:52.000","41.70274621","-87.53809059",41.70274621,-87.53809059,{"address": "", "city": "", "state": "", "zip": ""},"47","21202","49","602","47","25","19","247"
"12531138","JE433243","2021-11-04T00:51:00.000","013XX S INDEPENDENCE BLVD","051A","ASSAULT","AGGRAVATED - HANDGUN","APARTMENT",FALSE,TRUE,"1011","010","24","29","04A","1151465","1893629","2021","2021-11-11T15:51:52.000","41.863998697","-87.719455511",41.863998697,-87.719455511,{"address": "", "city": "", "state": "", "zip": ""},"36","21569","30","33","14","57","21","155"
"12531572","JE433609","2021-11-04T00:33:00.000","045XX N MAGNOLIA AVE","0610","BURGLARY","FORCIBLE ENTRY","RESTAURANT",FALSE,FALSE,"1913","019","46","3","05","1167100","1930337","2021","2021-11-11T15:51:52.000","41.964406542","-87.661003778",41.964406542,-87.661003778,{"address": "", "city": "", "state": "", "zip": ""},"37","22616","31","611","39","15","5","6"
"12531986","JE433251","2021-11-04T00:30:00.000","024XX N DRAKE AVE","0560","ASSAULT","SIMPLE","SIDEWALK",FALSE,TRUE,"1413","014","35","22","08A","1152304","1915925","2021","2021-11-11T15:51:52.000","41.925164631","-87.715786447",41.925164631,-87.715786447,{"address": "", "city": "", "state": "", "zip": ""},"10","22535","23","70","12","1","7","185"
"12531142","JE433222","2021-11-04T00:10:00.000","015XX N LARAMIE AVE","051A","ASSAULT","AGGRAVATED - HANDGUN","APARTMENT",FALSE,TRUE,"2533","025","37","25","04A","1141426","1909659","2021","2021-11-11T15:51:52.000","41.908178067","-87.755912749",41.908178067,-87.755912749,{"address": "", "city": "", "state": "", "zip": ""},"4","4299","26","599","45","5","6","195"
"12531184","JE433285","2021-11-04T00:04:00.000","027XX N NARRAGANSETT AVE","0610","BURGLARY","FORCIBLE ENTRY","SMALL RETAIL STORE",FALSE,FALSE,"2512","025","36","19","05","1133279","1917422","2021","2021-11-11T15:51:52.000","41.929627277","-87.785659069",41.929627277,-87.785659069,{"address": "", "city": "", "state": "", "zip": ""},"52","4454","19","78","21","2","6","183"
"12531176","JE433229","2021-11-03T23:17:00.000","014XX W LUNT AVE","0610","BURGLARY","FORCIBLE ENTRY","SMALL RETAIL STORE",FALSE,FALSE,"2431","024","49","1","05","1165435","1946615","2021","2021-11-10T15:51:56.000","42.009109527","-87.666659615",42.009109527,-87.666659615,{"address": "", "city": "", "state": "", "zip": ""},"3","21853","10","358","5","9","11","39"
"12531100","JE433178","2021-11-03T22:40:00.000","124XX S YALE AVE","0610","BURGLARY","FORCIBLE ENTRY","RESIDENCE - GARAGE",FALSE,FALSE,"0523","005","9","53","05","1176864","1822474","2021","2021-11-10T15:51:56.000","41.668205199","-87.628358213",41.668205199,-87.628358213,{"address": "", "city": "", "state": "", "zip": ""},"45","21861","50","206","22","19","10","218"
"12531121","JE433179","2021-11-03T22:00:00.000","071XX S OAKLEY AVE","051A","ASSAULT","AGGRAVATED - HANDGUN","RESIDENCE",FALSE,TRUE,"0832","008","18","66","04A","1162307","1857227","2021","2021-11-10T15:51:56.000","41.763887643","-87.680669815",41.763887643,-87.680669815,{"address": "", "city": "", "state": "", "zip": ""},"6","22257","64","333","30","23","13","207"
"12531375","JE433424","2021-11-03T21:45:00.000","039XX N WESTERN AVE","0620","BURGLARY","UNLAWFUL ENTRY","MEDICAL / DENTAL OFFICE",FALSE,FALSE,"1921","019","47","5","05","1159675","1925957","2021","2021-11-10T15:51:56.000","41.952544213","-87.688424591",41.952544213,-87.688424591,{"address": "", "city": "", "state": "", "zip": ""},"13","21538","46","613","18","39","5","21"
"12531058","JE433143","2021-11-03T21:42:00.000","011XX N RICHMOND ST","0560","ASSAULT","SIMPLE","RESIDENCE",TRUE,FALSE,"1211","012","26","24","08A","1156518","1907390","2021","2021-11-10T15:51:56.000","41.901659567","-87.700533579",41.901659567,-87.700533579,{"address": "", "city": "", "state": "", "zip": ""},"10","21560","25","301","49","4","15","64"
"12531106","JE433145","2021-11-03T21:14:00.000","080XX S ABERDEEN ST","0550","ASSAULT","AGGRAVATED POLICE OFFICER - HANDGUN","SIDEWALK",FALSE,FALSE,"0612","006","21","71","04A","1170383","1851418","2021","2021-11-10T15:51:56.000","41.747775024","-87.651238223",41.747775024,-87.651238223,{"address": "", "city": "", "state": "", "zip": ""},"18","21554","70","487","13","59","20","230"
"12531010","JE433120","2021-11-03T21:05:00.000","023XX W 111TH ST","0560","ASSAULT","SIMPLE","SMALL RETAIL STORE",FALSE,FALSE,"2212","022","19","75","08A","1162766","1830957","2021","2021-11-10T15:51:56.000","41.691788999","-87.67971859",41.691788999,-87.67971859,{"address": "", "city": "", "state": "", "zip": ""},"33","22212","74","378","42","13","9","257"
"12531343","JE433418","2021-11-03T21:00:00.000","032XX W 62ND PL","0560","ASSAULT","SIMPLE","APARTMENT",FALSE,TRUE,"0823","008","23","66","08A","1155909","1863008","2021","2021-11-10T15:51:56.000","41.779882406","-87.70396508",41.779882406,-87.70396508,{"address": "", "city": "", "state": "", "zip": ""},"44","21867","64","344","6","58","13","276"
"12530981","JE433083","2021-11-03T19:50:00.000","035XX S RHODES AVE","0545","ASSAULT","PROTECTED EMPLOYEE - HANDS, FISTS, FEET, NO / MINOR INJURY","RESIDENCE",FALSE,FALSE,"0212","002","4","35","08A","1180172","1881335","2021","2021-11-10T15:51:56.000","41.829651528","-87.614451899",41.829651528,-87.614451899,{"address": "", "city": "", "state": "", "zip": ""},"1","4301","1","561","10","36","24","101"
"12531062","JE433102","2021-11-03T19:45:00.000","080XX S INGLESIDE AVE","0620","BURGLARY","UNLAWFUL ENTRY","APARTMENT",FALSE,FALSE,"0631","006","8","44","05","1183962","1851813","2021","2021-11-10T15:51:56.000","41.748552784","-87.601468663",41.748552784,-87.601468663,{"address": "", "city": "", "state": "", "zip": ""},"9","21546","40","247","35","61","20","235"
"12531077","JE433105","2021-11-03T19:00:00.000","081XX S BURNHAM AVE","0560","ASSAULT","SIMPLE","RESIDENCE",FALSE,TRUE,"0422","004","7","46","08A","1196250","1851461","2021","2021-11-10T15:51:56.000","41.747291234","-87.556453572",41.747291234,-87.556453572,{"address": "", "city": "", "state": "", "zip": ""},"43","21202","42","244","37","25","19","234"
"12531550","JE433708","2021-11-03T19:00:00.000","075XX S SOUTH SHORE DR","0560","ASSAULT","SIMPLE","APARTMENT",FALSE,FALSE,"0421","004","7","43","08A","1196126","1856148","2021","2021-11-10T15:51:56.000","41.76015578","-87.556752911",41.76015578,-87.556752911,{"address": "", "city": "", "state": "", "zip": ""},"43","22538","39","421","37","24","19","225"
"12530842","JE433056","2021-11-03T19:00:00.000","042XX W LAWRENCE AVE","0560","ASSAULT","SIMPLE","SIDEWALK",FALSE,TRUE,"1722","017","39","14","08A","1147435","1931567","2021","2021-11-10T15:51:56.000","41.96818241","-87.733275184",41.96818241,-87.733275184,{"address": "", "city": "", "state": "", "zip": ""},"28","21869","14","257","38","48","1","48"
"12530757","JE432923","2021-11-03T17:50:00.000","025XX W CHARLESTON ST","0560","ASSAULT","SIMPLE","RESIDENCE",FALSE,FALSE,"1431","014","1","22","08A","1159299","1914082","2021","2021-11-10T15:51:56.000","41.919966191","-87.690134296",41.919966191,-87.690134296,{"address": "", "city": "", "state": "", "zip": ""},"24","22535","23","323","41","1","7","184"
"12530761","JE432917","2021-11-03T17:40:00.000","025XX W CHARLESTON ST","0560","ASSAULT","SIMPLE","RESIDENCE",FALSE,FALSE,"1431","014","1","22","08A","1159352","1914082","2021","2021-11-10T15:51:56.000","41.9199651","-87.689939565",41.9199651,-87.689939565,{"address": "", "city": "", "state": "", "zip": ""},"24","22535","23","323","41","1","7","184"
"12530849","JE433052","2021-11-03T17:10:00.000","010XX W NORTH AVE","0610","BURGLARY","FORCIBLE ENTRY","COMMERCIAL / BUSINESS OFFICE",FALSE,FALSE,"1811","018","2","7","05","1169007","1910823","2021","2021-11-10T15:51:56.000","41.91081797","-87.654560398",41.91081797,-87.654560398,{"address": "", "city": "", "state": "", "zip": ""},"16","22620","68","168","11","16","14","186"
"12530726","JE432927","2021-11-03T17:00:00.000","020XX N KOSTNER AVE","0560","ASSAULT","SIMPLE","APARTMENT",FALSE,FALSE,"2522","025","36","20","08A","1146722","1913393","2021","2021-11-10T15:51:56.000","41.918325061","-87.736362258",41.918325061,-87.736362258,{"address": "", "city": "", "state": "", "zip": ""},"27","22615","21","75","12","2","6","188"
"12530980","JE432865","2021-11-03T17:00:00.000","048XX S CHICAGO BEACH DR","0530","ASSAULT","AGGRAVATED - OTHER DANGEROUS WEAPON","SIDEWALK",FALSE,FALSE,"0222","002","4","39","04A","1187888","1873183","2021","2021-11-10T15:51:56.000","41.807101267","-87.586402447",41.807101267,-87.586402447,{"address": "", "city": "", "state": "", "zip": ""},"1","21192","5","400","10","10","24","113"
"12530810","JE432874","2021-11-03T17:00:00.000","0000X W 79TH ST","0560","ASSAULT","SIMPLE","CTA TRAIN",FALSE,FALSE,"0623","006","6","44","08A","1177483","1852629","2021","2021-11-10T15:51:56.000","41.750940757","-87.625185222",41.750940757,-87.625185222,{"address": "", "city": "", "state": "", "zip": ""},"31","21554","67","495","32","59","20","228"
"12531057","JE433074","2021-11-03T17:00:00.000","005XX E 86TH PL","051A","ASSAULT","AGGRAVATED - HANDGUN","RESIDENCE",FALSE,TRUE,"0632","006","6","44","04A","1181476","1847755","2021","2021-11-10T15:51:56.000","41.737474838","-87.610703027",41.737474838,-87.610703027,{"address": "", "city": "", "state": "", "zip": ""},"31","21546","40","140","32","61","20","241"
"12531000","JE433060","2021-11-03T16:10:00.000","006XX N SANGAMON ST","0610","BURGLARY","FORCIBLE ENTRY","RESIDENCE",FALSE,FALSE,"1214","012","27","24","05","1169992","1904758","2021","2021-11-10T15:51:56.000","41.894153798","-87.651119072",41.894153798,-87.651119072,{"address": "", "city": "", "state": "", "zip": ""},"41","22620","25","522","46","49","15","76"
"12530776","JE432849","2021-11-03T16:00:00.000","024XX E 77TH ST","0530","ASSAULT","AGGRAVATED - OTHER DANGEROUS WEAPON","STREET",FALSE,TRUE,"0421","004","7","43","04A","1193654","1854380","2021","2021-11-10T15:51:56.000","41.755365131","-87.56587045",41.755365131,-87.56587045,{"address": "", "city": "", "state": "", "zip": ""},"43","22538","39","245","37","24","19","225"
"12531210","JE432822","2021-11-03T16:00:00.000","005XX W SURF ST","0560","ASSAULT","SIMPLE","RESIDENCE",FALSE,FALSE,"1934","019","44","6","08A","1172497","1919410","2021","2021-11-10T15:51:56.000","41.934304581","-87.641484982",41.934304581,-87.641484982,{"address": "", "city": "", "state": "", "zip": ""},"38","4449","57","153","25","22","5","30"
"12530698","JE432776","2021-11-03T16:00:00.000","049XX N CLAREMONT AVE","0560","ASSAULT","SIMPLE","SCHOOL - PRIVATE GROUNDS",FALSE,FALSE,"2031","020","40","4","08A","1159802","1932681","2021","2021-11-10T15:51:56.000","41.970992597","-87.687771513",41.970992597,-87.687771513,{"address": "", "city": "", "state": "", "zip": ""},"13","21849","6","54","24","20","2","61"
"12532273","JE433629","2021-11-03T16:00:00.000","016XX W MORSE AVE","0610","BURGLARY","FORCIBLE ENTRY","RESTAURANT",FALSE,FALSE,"2431","024","49","1","05","1164308","1946138","2021","2021-11-10T15:51:56.000","42.007824638","-87.670819747",42.007824638,-87.670819747,{"address": "", "city": "", "state": "", "zip": ""},"3","21853","10","49","5","9","11","39"
"12530729","JE432860","2021-11-03T15:47:00.000","065XX S LOWE AVE","0560","ASSAULT","SIMPLE","APARTMENT",FALSE,FALSE,"0723","007","20","68","08A","1173163","1861518","2021","2021-11-10T15:51:56.000","41.775429728","-87.640753492",41.775429728,-87.640753492,{"address": "", "city": "", "state": "", "zip": ""},"53","21559","66","435","4","11","17","202"
"12531447","JE433554","2021-11-03T15:30:00.000","058XX N CALIFORNIA AVE","051A","ASSAULT","AGGRAVATED - HANDGUN","SCHOOL - PUBLIC GROUNDS",FALSE,FALSE,"2011","020","40","2","04A","1156621","1938690","2021","2021-11-10T15:51:56.000","41.987546771","-87.699304837",41.987546771,-87.699304837,{"address": "", "city": "", "state": "", "zip": ""},"46","4450","20","65","24","50","2","57"
"12530719","JE432764","2021-11-03T15:25:00.000","100XX S NORMAL AVE","0520","ASSAULT","AGGRAVATED - KNIFE / CUTTING INSTRUMENT","RESIDENCE",FALSE,TRUE,"2232","022","9","73","04A","1174740","1838158","2021","2021-11-10T15:51:56.000","41.711291918","-87.635666699",41.711291918,-87.635666699,{"address": "", "city": "", "state": "", "zip": ""},"30","21861","72","593","43","19","9","253"
"12530706","JE432717","2021-11-03T15:25:00.000","033XX W LE MOYNE ST","0520","ASSAULT","AGGRAVATED - KNIFE / CUTTING INSTRUMENT","APARTMENT",FALSE,TRUE,"1422","014","26","23","04A","1153857","1909770","2021","2021-11-10T15:51:56.000","41.908243951","-87.710244288",41.908243951,-87.710244288,{"address": "", "city": "", "state": "", "zip": ""},"10","4299","24","455","49","5","7","190"
"12530840","JE432937","2021-11-03T15:23:00.000","026XX W HURON ST","0560","ASSAULT","SIMPLE","RESIDENCE",FALSE,FALSE,"1221","012","26","24","08A","1158540","1904561","2021","2021-11-10T15:51:56.000","41.89385538","-87.693184055",41.89385538,-87.693184055,{"address": "", "city": "", "state": "", "zip": ""},"10","21184","25","545","49","28","15","80"
"12535594","JE436031","2021-11-03T15:00:00.000","022XX W 111TH ST","0560","ASSAULT","SIMPLE","APARTMENT",FALSE,TRUE,"2212","022","19","75","08A","1163209","1830971","2021","2021-11-10T15:51:56.000","41.691818181","-87.678096311",41.691818181,-87.678096311,{"address": "", "city": "", "state": "", "zip": ""},"33","22212","74","378","42","13","9","257"
"12530705","JE432829","2021-11-03T14:30:00.000","115XX S MORGAN ST","0560","ASSAULT","SIMPLE","RESIDENCE",FALSE,FALSE,"0524","005","34","53","08A","1171736","1827999","2021","2021-11-10T15:51:56.000","41.683480302","-87.64696452",41.683480302,-87.64696452,{"address": "", "city": "", "state": "", "zip": ""},"45","22212","50","642","22","13","10","220"
"12530834","JE433038","2021-11-03T14:30:00.000","017XX N MAYFIELD AVE","0560","ASSAULT","SIMPLE","APARTMENT",FALSE,FALSE,"2531","025","29","25","08A","1136820","1910965","2021","2021-11-10T15:51:56.000","41.911845725","-87.772801757",41.911845725,-87.772801757,{"address": "", "city": "", "state": "", "zip": ""},"52","22615","26","597","7","2","6","154"
"12530604","JE432646","2021-11-03T14:20:00.000","076XX S STEWART AVE","0560","ASSAULT","SIMPLE","APARTMENT",FALSE,FALSE,"0621","006","17","69","08A","1174951","1854216","2021","2021-11-10T15:51:56.000","41.755352491","-87.634416423",41.755352491,-87.634416423,{"address": "", "city": "", "state": "", "zip": ""},"17","21554","67","495","31","59","20","229"
"12532702","JE432682","2021-11-03T14:15:00.000","017XX W 119TH ST","051A","ASSAULT","AGGRAVATED - HANDGUN","STREET",FALSE,FALSE,"2234","022","34","75","04A","1166691","1825767","2021","2021-11-10T15:51:56.000","41.677464116","-87.665495904",41.677464116,-87.665495904,{"address": "", "city": "", "state": "", "zip": ""},,"4460",,"378",,,,
"12531495","JE433552","2021-11-03T14:04:00.000","047XX S KEDZIE AVE","0560","ASSAULT","SIMPLE","COMMERCIAL / BUSINESS OFFICE",FALSE,FALSE,"0821","008","14","58","08A","1155847","1872716","2021","2021-11-10T15:51:56.000","41.806523779","-87.70393181",41.806523779,-87.70393181,{"address": "", "city": "", "state": "", "zip": ""},"49","22248","55","85","8","56","13","103"
"12534971","JE438029","2021-11-03T14:00:00.000","061XX N ST LOUIS AVE","0620","BURGLARY","UNLAWFUL ENTRY","RESIDENCE",FALSE,FALSE,"1711","017","50","13","05","1151932","1940614","2021","2021-11-10T15:51:56.000","41.992920289","-87.716500334",41.992920289,-87.716500334,{"address": "", "city": "", "state": "", "zip": ""},"42","4450","13","747","27","50","1","53"
"12530755","JE432690","2021-11-03T13:45:00.000","008XX S WABASH AVE","0630","BURGLARY","ATTEMPT FORCIBLE ENTRY","APARTMENT",FALSE,FALSE,"0123","001","4","32","05","1176920","1896499","2021","2021-11-10T15:51:56.000","41.871336669","-87.625925",41.871336669,-87.625925,{"address": "", "city": "", "state": "", "zip": ""},"48","14913","38","368","10","35","22","144"
"12530636","JE432597","2021-11-03T13:35:00.000","056XX W DIVERSEY AVE","0560","ASSAULT","SIMPLE","FEDERAL BUILDING",FALSE,FALSE,"2514","025","31","19","08A","1138322","1918051","2021","2021-11-10T15:51:56.000","41.931263432","-87.767111886",41.931263432,-87.767111886,{"address": "", "city": "", "state": "", "zip": ""},"27","22615","19","58","21","2","6","177"
"12531456","JE433551","2021-11-03T13:30:00.000","013XX S SACRAMENTO DR","0560","ASSAULT","SIMPLE","SCHOOL - PUBLIC GROUNDS",FALSE,FALSE,"1022","010","24","29","08A","1156172","1893743","2021","2021-11-10T15:51:56.000","41.864217865","-87.702173146",41.864217865,-87.702173146,{"address": "", "city": "", "state": "", "zip": ""},"36","21569","30","132","14","57","21","152"
"12531034","JE432695","2021-11-03T13:28:00.000","018XX W 47TH ST","0530","ASSAULT","AGGRAVATED - OTHER DANGEROUS WEAPON","RESTAURANT",FALSE,FALSE,"0924","009","15","61","04A","1165006","1873524","2021","2021-11-10T15:51:56.000","41.808552056","-87.670316719",41.808552056,-87.670316719,{"address": "", "city": "", "state": "", "zip": ""},"53","14924","59","706","3","37","23","119"
"12530830","JE432582","2021-11-03T13:00:00.000","003XX S CICERO AVE","0560","ASSAULT","SIMPLE","GAS STATION",TRUE,FALSE,"1533","015","28","25","08A","1144438","1898165","2021","2021-11-10T15:51:56.000","41.876581037","-87.745137513",41.876581037,-87.745137513,{"address": "", "city": "", "state": "", "zip": ""},"36","22216","26","69","23","32","16","143"
"12534446","JE432951","2021-11-03T13:00:00.000","083XX S HOLLAND RD","0560","ASSAULT","SIMPLE","MEDICAL / DENTAL OFFICE",FALSE,TRUE,"0622","006","21","44","08A","1175640","1849717","2021","2021-11-10T15:51:56.000","41.742991296","-87.632025815",41.742991296,-87.632025815,{"address": "", "city": "", "state": "", "zip": ""},"18","21554","40","1","13","59","20","236"
"12530871","JE432703","2021-11-03T13:00:00.000","035XX W HURON ST","0560","ASSAULT","SIMPLE","APARTMENT",FALSE,FALSE,"1121","011","27","23","08A","1152444","1904436","2021","2021-11-10T15:51:56.000","41.893634992","-87.715576064",41.893634992,-87.715576064,{"address": "", "city": "", "state": "", "zip": ""},"41","21572","24","584","46","30","16","65"
"12531555","JE433451","2021-11-03T13:00:00.000","073XX S CRANDON AVE","0560","ASSAULT","SIMPLE","APARTMENT",FALSE,FALSE,"0334","003","7","43","08A","1192817","1856707","2021","2021-11-10T15:51:56.000","41.761771052","-87.568861998",41.761771052,-87.568861998,{"address": "", "city": "", "state": "", "zip": ""},"43","22538","39","418","37","24","18","89"
"12530646","JE432581","2021-11-03T12:50:00.000","060XX S ROCKWELL ST","0545","ASSAULT","PROTECTED EMPLOYEE - HANDS, FISTS, FEET, NO / MINOR INJURY","SCHOOL - PUBLIC GROUNDS",FALSE,FALSE,"0825","008","16","66","08A","1160074","1864580","2021","2021-11-10T15:51:56.000","41.784111527","-87.688652292",41.784111527,-87.688652292,{"address": "", "city": "", "state": "", "zip": ""},"44","21867","64","111","2","58","13","274"
"12530585","JE432513","2021-11-03T12:15:00.000","032XX W FULLERTON AVE","0560","ASSAULT","SIMPLE","COMMERCIAL / BUSINESS OFFICE",FALSE,FALSE,"1413","014","32","22","08A","1154349","1915772","2021","2021-11-10T15:51:56.000","41.924704127","-87.708276227",41.924704127,-87.708276227,{"address": "", "city": "", "state": "", "zip": ""},"15","22535","23","321","40","1","7","185"
"12530600","JE432670","2021-11-03T12:00:00.000","093XX S SOUTH CHICAGO AVE","0560","ASSAULT","SIMPLE","OTHER (SPECIFY)",FALSE,FALSE,"0424","004","10","48","08A","1198069","1843689","2021","2021-11-10T15:51:56.000","41.725919003","-87.550047586",41.725919003,-87.550047586,{"address": "", "city": "", "state": "", "zip": ""},"47","21202","44","493","47","25","19","239"
"12530769","JE432977","2021-11-03T12:00:00.000","037XX S KEDZIE AVE","0560","ASSAULT","SIMPLE","FACTORY / MANUFACTURING BUILDING",FALSE,FALSE,"0911","009","12","58","08A","1155641","1879824","2021","2021-11-10T15:51:56.000","41.826033198","-87.704496575",41.826033198,-87.704496575,{"address": "", "city": "", "state": "", "zip": ""},"29","22248","55","639","1","56","23","96"
"12533197","JE432505","2021-11-03T11:45:00.000","089XX S BRANDON AVE","0560","ASSAULT","SIMPLE","APARTMENT",FALSE,TRUE,"0424","004","10","46","08A","1198875","1846387","2021","2021-11-10T15:51:56.000","41.733302365","-87.54700494",41.733302365,-87.54700494,{"address": "", "city": "", "state": "", "zip": ""},"47","21202","42","175","47","25","19","239"
"12530887","JE433062","2021-11-03T11:00:00.000","0000X E 114TH ST","0560","ASSAULT","SIMPLE","NURSING / RETIREMENT HOME",FALSE,FALSE,"0531","005","9","49","08A","1178512","1829357","2021","2021-11-10T15:51:56.000","41.687056038","-87.622118983",41.687056038,-87.622118983,{"address": "", "city": "", "state": "", "zip": ""},"30","21861","45","253","43","19","10","265"
"12530559","JE432449","2021-11-03T11:00:00.000","083XX S BUFFALO AVE","0560","ASSAULT","SIMPLE","STREET",FALSE,FALSE,"0424","004","10","46","08A","1199590","1850332","2021","2021-11-10T15:51:56.000","41.744109777","-87.544253098",41.744109777,-87.544253098,{"address": "", "city": "", "state": "", "zip": ""},"47","21202","42","506","47","25","19","239"
"12531980","JE433276","2021-11-03T11:00:00.000","013XX N DAMEN AVE","0610","BURGLARY","FORCIBLE ENTRY","APARTMENT",FALSE,FALSE,"1424","014","1","24","05","1162825","1908862","2021","2021-11-10T15:51:56.000","41.905568845","-87.677325887",41.905568845,-87.677325887,{"address": "", "city": "", "state": "", "zip": ""},"24","21560","25","481","41","4","7","200"
"12536880","JE440227","2021-11-03T10:54:00.000","013XX S MICHIGAN AVE","0620","BURGLARY","UNLAWFUL ENTRY","APARTMENT",FALSE,FALSE,"0131","001","3","33","05",,,"2021","2021-11-10T15:51:56.000",,,,,,,,,,,,,
"12530476","JE432446","2021-11-03T10:50:00.000","020XX N HAMLIN AVE","0560","ASSAULT","SIMPLE","RESIDENCE - PORCH / HALLWAY",FALSE,FALSE,"2525","025","26","22","08A","1150720","1913186","2021","2021-11-10T15:51:56.000","41.917679727","-87.721678625",41.917679727,-87.721678625,{"address": "", "city": "", "state": "", "zip": ""},"10","22535","23","73","49","1","6","187"
"12532187","JE433700","2021-11-03T10:30:00.000","002XX E ILLINOIS ST","0560","ASSAULT","SIMPLE","COMMERCIAL / BUSINESS OFFICE",FALSE,FALSE,"1834","018","42","8","08A","1177982","1903664","2021","2021-11-10T15:51:56.000","41.890973728","-87.621807953",41.890973728,-87.621807953,{"address": "", "city": "", "state": "", "zip": ""},"22","21182","37","159","36","6","14","74"
"12530975","JE433034","2021-11-03T10:30:00.000","006XX W 71ST ST","0545","ASSAULT","PROTECTED EMPLOYEE - HANDS, FISTS, FEET, NO / MINOR INJURY","SCHOOL - PUBLIC BUILDING",FALSE,FALSE,"0732","007","6","68","08A","1173056","1857809","2021","2021-11-10T15:51:56.000","41.765254159","-87.641255151",41.765254159,-87.641255151,{"address": "", "city": "", "state": "", "zip": ""},"31","21559","66","479","32","11","17","214"
"12530480","JE432375","2021-11-03T09:55:00.000","087XX S EXCHANGE AVE","0610","BURGLARY","FORCIBLE ENTRY","RESIDENCE",FALSE,FALSE,"0423","004","10","46","05","1197282","1847605","2021","2021-11-10T15:51:56.000","41.736684443","-87.552800274",41.736684443,-87.552800274,{"address": "", "city": "", "state": "", "zip": ""},"47","21202","42","509","47","25","19","238"
"12530462","JE432369","2021-11-03T09:40:00.000","072XX S STATE ST","0545","ASSAULT","PROTECTED EMPLOYEE - HANDS, FISTS, FEET, NO / MINOR INJURY","SCHOOL - PUBLIC BUILDING",FALSE,FALSE,"0323","003","6","69","08A","1177540","1856922","2021","2021-11-10T15:51:56.000","41.762719954","-87.624846791",41.762719954,-87.624846791,{"address": "", "city": "", "state": "", "zip": ""},"31","21546","67","474","32","61","18","223"
"12533216","JE435794","2021-11-03T09:30:00.000","043XX S ST LAWRENCE AVE","0560","ASSAULT","SIMPLE","OTHER (SPECIFY)",FALSE,FALSE,"0221","002","4","38","08A","1180986","1876346","2021","2021-11-10T15:51:56.000","41.815942606","-87.611619137",41.815942606,-87.611619137,{"address": "", "city": "", "state": "", "zip": ""},"1","4301","4","161","10","36","24","114"
"12530357","JE432310","2021-11-03T09:10:00.000","010XX W 51ST ST","051A","ASSAULT","AGGRAVATED - HANDGUN","STREET",FALSE,TRUE,"0934","009","20","61","04A","1170427","1871001","2021","2021-11-10T15:51:56.000","41.801512193","-87.650507242",41.801512193,-87.650507242,{"address": "", "city": "", "state": "", "zip": ""},"19","14924","59","708","4","37","23","127"
"12530444","JE432345","2021-11-03T09:10:00.000","014XX W 94TH ST","051A","ASSAULT","AGGRAVATED - HANDGUN","APARTMENT",FALSE,TRUE,"2222","022","21","73","04A","1168193","1842401","2021","2021-11-10T15:51:56.000","41.723078428","-87.659521747",41.723078428,-87.659521747,{"address": "", "city": "", "state": "", "zip": ""},"18","21554","72","195","13","59","9","244"
"12530514","JE432444","2021-11-03T09:00:00.000","012XX W FOSTER AVE","0620","BURGLARY","UNLAWFUL ENTRY","APARTMENT",FALSE,FALSE,"2033","020","47","3","05","1166691","1934663","2021","2021-11-10T15:51:56.000","41.97628603","-87.662382985",41.97628603,-87.662382985,{"address": "", "city": "", "state": "", "zip": ""},"40","22616","76","540","16","15","2","54"
"12530435","JE432349","2021-11-03T09:00:00.000","061XX S LANGLEY AVE","0560","ASSAULT","SIMPLE","STREET",FALSE,FALSE,"0313","003","20","42","08A","1181951","1864451","2021","2021-11-10T15:51:56.000","41.783279429","-87.608447325",41.783279429,-87.608447325,{"address": "", "city": "", "state": "", "zip": ""},"53","22260","9","471","4","60","18","275"
"12530682","JE432258","2021-11-03T08:38:00.000","121XX S LAFAYETTE AVE","0610","BURGLARY","FORCIBLE ENTRY","RESIDENCE - GARAGE",FALSE,FALSE,"0523","005","9","53","05","1178112","1824477","2021","2021-11-10T15:51:56.000","41.673673636","-87.623730454",41.673673636,-87.623730454,{"address": "", "city": "", "state": "", "zip": ""},"30","21861","50","60","43","19","10","218"
"12530815","JE432760","2021-11-03T08:30:00.000","001XX E 104TH PL","0560","ASSAULT","SIMPLE","RESIDENCE",FALSE,TRUE,"0512","005","9","49","08A","1179089","1835637","2021","2021-11-10T15:51:56.000","41.704276153","-87.619816231",41.704276153,-87.619816231,{"address": "", "city": "", "state": "", "zip": ""},"30","21861","45","236","43","19","10","256"
"12532467","JE434860","2021-11-03T08:30:00.000","018XX N CLEVELAND AVE","0620","BURGLARY","UNLAWFUL ENTRY","RESIDENCE",FALSE,FALSE,"1813","018","43","7","05","1172642","1912506","2021","2021-11-10T15:51:56.000","41.915356492","-87.641156921",41.915356492,-87.641156921,{"address": "", "city": "", "state": "", "zip": ""},"51","21190","68","208","34","16","14","189"
"12530370","JE432222","2021-11-03T08:16:00.000","005XX N WABASH AVE","051A","ASSAULT","AGGRAVATED - HANDGUN","STREET",FALSE,FALSE,"1834","018","42","8","04A","1176639","1904019","2021","2021-11-10T15:51:56.000","41.89197832","-87.62672933",41.89197832,-87.62672933,{"address": "", "city": "", "state": "", "zip": ""},"22","21182","37","626","36","6","14","74"
"12530365","JE432411","2021-11-03T08:00:00.000","040XX W CRYSTAL ST","0610","BURGLARY","FORCIBLE ENTRY","RESIDENCE - GARAGE",FALSE,FALSE,"2534","025","37","23","05","1149262","1908033","2021","2021-11-10T15:51:56.000","41.903567803","-87.727169208",41.903567803,-87.727169208,{"address": "", "city": "", "state": "", "zip": ""},"41","4299","24","286","45","5","6","194"
"12530384","JE432210","2021-11-03T07:54:00.000","008XX W CERMAK RD","0560","ASSAULT","SIMPLE","RESTAURANT",FALSE,FALSE,"1235","012","11","31","08A","1171260","1889640","2021","2021-11-10T15:51:56.000","41.852641163","-87.646906167",41.852641163,-87.646906167,{"address": "", "city": "", "state": "", "zip": ""},"8","14920","33","250","48","43","15","158"
"12530307","JE432159","2021-11-03T07:07:00.000","072XX S LOWE AVE","051A","ASSAULT","AGGRAVATED - HANDGUN","STREET",FALSE,FALSE,"0732","007","6","68","04A","1173398","1856915","2021","2021-11-10T15:51:56.000","41.762793358","-87.640028031",41.762793358,-87.640028031,{"address": "", "city": "", "state": "", "zip": ""},"17","21559","66","511","32","11","17","214"
"12533531","JE433089","2021-11-03T07:00:00.000","080XX S JUSTINE ST","0620","BURGLARY","UNLAWFUL ENTRY","APARTMENT",FALSE,FALSE,"0612","006","21","71","05","1167400","1851512","2021","2021-11-10T15:51:56.000","41.748097343","-87.662166183",41.748097343,-87.662166183,{"address": "", "city": "", "state": "", "zip": ""},"18","21554","70","558","13","59","20","230"
